{
  "type": "FeatureCollection",
  "features": [
    {
      "type": "Feature",
      "properties": {
        "norad_id": 31746,
        "name": "FENGYUN 1C DEB",
        "group": "fengyun-1c-debris",
        "lat": -62.077248758371915,
        "lon": -92.44142034431097,
        "alt_km": 632.4146550070009,
        "timestamp": "2025-12-07T20:38:14.347476+00:00",
        "meta_object_name": "FENGYUN 1C DEB",
        "meta_object_id": "1999-025CEV",
        "meta_epoch": "2025-12-06T14:15:34.071840",
        "meta_mean_motion": 14.76292823,
        "meta_eccentricity": 0.00238411,
        "meta_inclination": 98.589,
        "meta_ra_of_asc_node": 102.7832,
        "meta_arg_of_pericenter": 224.6254,
        "meta_mean_anomaly": 135.3036,
        "meta_ephemeris_type": 0,
        "meta_classification_type": "U",
        "meta_norad_cat_id": 31746,
        "meta_element_set_no": 999,
        "meta_rev_at_epoch": 96937,
        "meta_bstar": 0.0062924398,
        "meta_mean_motion_dot": 0.00044037,
        "meta_mean_motion_ddot": 0,
        "tle_line1": "1 31746U 99025CEV 25340.59414435  .00044037  00000+0  62924-2 0  9997",
        "tle_line2": "2 31746  98.5890 102.7832 0023841 224.6254 135.3036 14.76292823969377"
      },
      "geometry": {
        "type": "Point",
        "coordinates": [
          -92.44142034431097,
          -62.077248758371915
        ]
      }
    },
    {
      "type": "Feature",
      "properties": {
        "norad_id": 31752,
        "name": "FENGYUN 1C DEB",
        "group": "fengyun-1c-debris",
        "lat": 7.79748020154382,
        "lon": -123.98386058367991,
        "alt_km": 1179.1465964508398,
        "timestamp": "2025-12-07T20:38:14.347486+00:00",
        "meta_object_name": "FENGYUN 1C DEB",
        "meta_object_id": "1999-025CFB",
        "meta_epoch": "2025-11-28T11:42:46.096128",
        "meta_mean_motion": 13.92945252,
        "meta_eccentricity": 0.0356614,
        "meta_inclination": 98.9794,
        "meta_ra_of_asc_node": 45.6633,
        "meta_arg_of_pericenter": 12.9266,
        "meta_mean_anomaly": 348.0748,
        "meta_ephemeris_type": 0,
        "meta_classification_type": "U",
        "meta_norad_cat_id": 31752,
        "meta_element_set_no": 999,
        "meta_rev_at_epoch": 93392,
        "meta_bstar": 0.0012622162,
        "meta_mean_motion_dot": 2.723e-05,
        "meta_mean_motion_ddot": 0,
        "tle_line1": "1 31752U 99025CFB 25332.48803352  .00002723  00000+0  12622-2 0  9999",
        "tle_line2": "2 31752  98.9794  45.6633 0356614  12.9266 348.0748 13.92945252933926"
      },
      "geometry": {
        "type": "Point",
        "coordinates": [
          -123.98386058367991,
          7.79748020154382
        ]
      }
    },
    {
      "type": "Feature",
      "properties": {
        "norad_id": 31753,
        "name": "FENGYUN 1C DEB",
        "group": "fengyun-1c-debris",
        "lat": -10.875417343666946,
        "lon": 16.779007538337513,
        "alt_km": 942.3940605577664,
        "timestamp": "2025-12-07T20:38:14.347496+00:00",
        "meta_object_name": "FENGYUN 1C DEB",
        "meta_object_id": "1999-025CFC",
        "meta_epoch": "2025-12-04T13:51:22.468032",
        "meta_mean_motion": 14.18618704,
        "meta_eccentricity": 0.0158713,
        "meta_inclination": 98.6331,
        "meta_ra_of_asc_node": 11.9101,
        "meta_arg_of_pericenter": 197.2848,
        "meta_mean_anomaly": 316.6014,
        "meta_ephemeris_type": 0,
        "meta_classification_type": "U",
        "meta_norad_cat_id": 31753,
        "meta_element_set_no": 999,
        "meta_rev_at_epoch": 95903,
        "meta_bstar": 0.00056773,
        "meta_mean_motion_dot": 1.29e-05,
        "meta_mean_motion_ddot": 0,
        "tle_line1": "1 31753U 99025CFC 25338.57734338  .00001290  00000+0  56773-3 0  9997",
        "tle_line2": "2 31753  98.6331  11.9101 0158713 197.2848 316.6014 14.18618704959035"
      },
      "geometry": {
        "type": "Point",
        "coordinates": [
          16.779007538337513,
          -10.875417343666946
        ]
      }
    },
    {
      "type": "Feature",
      "properties": {
        "norad_id": 31754,
        "name": "FENGYUN 1C DEB",
        "group": "fengyun-1c-debris",
        "lat": 26.839778981838673,
        "lon": -57.75560829382848,
        "alt_km": 781.7422327859449,
        "timestamp": "2025-12-07T20:38:14.347506+00:00",
        "meta_object_name": "FENGYUN 1C DEB",
        "meta_object_id": "1999-025CFD",
        "meta_epoch": "2025-12-07T03:51:35.642016",
        "meta_mean_motion": 14.42201336,
        "meta_eccentricity": 0.00491142,
        "meta_inclination": 99.0399,
        "meta_ra_of_asc_node": 306.1249,
        "meta_arg_of_pericenter": 234.7573,
        "meta_mean_anomaly": 124.9013,
        "meta_ephemeris_type": 0,
        "meta_classification_type": "U",
        "meta_norad_cat_id": 31754,
        "meta_element_set_no": 999,
        "meta_rev_at_epoch": 96909,
        "meta_bstar": 0.0017416344,
        "meta_mean_motion_dot": 5.775e-05,
        "meta_mean_motion_ddot": 0,
        "tle_line1": "1 31754U 99025CFD 25341.16082919  .00005775  00000+0  17416-2 0  9990",
        "tle_line2": "2 31754  99.0399 306.1249 0049114 234.7573 124.9013 14.42201336969095"
      },
      "geometry": {
        "type": "Point",
        "coordinates": [
          -57.75560829382848,
          26.839778981838673
        ]
      }
    },
    {
      "type": "Feature",
      "properties": {
        "norad_id": 31757,
        "name": "FENGYUN 1C DEB",
        "group": "fengyun-1c-debris",
        "lat": -78.62976882779674,
        "lon": 54.19500827534005,
        "alt_km": 1031.8672043000115,
        "timestamp": "2025-12-07T20:38:14.347516+00:00",
        "meta_object_name": "FENGYUN 1C DEB",
        "meta_object_id": "1999-025CFG",
        "meta_epoch": "2025-12-06T19:27:27.186912",
        "meta_mean_motion": 14.07911335,
        "meta_eccentricity": 0.02180919,
        "meta_inclination": 98.7682,
        "meta_ra_of_asc_node": 3.0467,
        "meta_arg_of_pericenter": 100.7376,
        "meta_mean_anomaly": 261.8428,
        "meta_ephemeris_type": 0,
        "meta_classification_type": "U",
        "meta_norad_cat_id": 31757,
        "meta_element_set_no": 999,
        "meta_rev_at_epoch": 63798,
        "meta_bstar": 0.0002802881,
        "meta_mean_motion_dot": 5.5e-06,
        "meta_mean_motion_ddot": 0,
        "tle_line1": "1 31757U 99025CFG 25340.81073133  .00000550  00000+0  28029-3 0  9991",
        "tle_line2": "2 31757  98.7682   3.0467 0218091 100.7376 261.8428 14.07911335637988"
      },
      "geometry": {
        "type": "Point",
        "coordinates": [
          54.19500827534005,
          -78.62976882779674
        ]
      }
    },
    {
      "type": "Feature",
      "properties": {
        "norad_id": 31758,
        "name": "FENGYUN 1C DEB",
        "group": "fengyun-1c-debris",
        "lat": -76.70160824653838,
        "lon": 28.029669675343566,
        "alt_km": 986.3164770509484,
        "timestamp": "2025-12-07T20:38:14.347525+00:00",
        "meta_object_name": "FENGYUN 1C DEB",
        "meta_object_id": "1999-025CFH",
        "meta_epoch": "2025-12-06T23:22:14.550528",
        "meta_mean_motion": 14.41813416,
        "meta_eccentricity": 0.03187602,
        "meta_inclination": 98.0593,
        "meta_ra_of_asc_node": 350.3602,
        "meta_arg_of_pericenter": 107.7464,
        "meta_mean_anomaly": 255.8782,
        "meta_ephemeris_type": 0,
        "meta_classification_type": "U",
        "meta_norad_cat_id": 31758,
        "meta_element_set_no": 999,
        "meta_rev_at_epoch": 94117,
        "meta_bstar": 0.0027459702,
        "meta_mean_motion_dot": 0.00016556,
        "meta_mean_motion_ddot": 0,
        "tle_line1": "1 31758U 99025CFH 25340.97377952  .00016556  00000+0  27460-2 0  9995",
        "tle_line2": "2 31758  98.0593 350.3602 0318760 107.7464 255.8782 14.41813416941175"
      },
      "geometry": {
        "type": "Point",
        "coordinates": [
          28.029669675343566,
          -76.70160824653838
        ]
      }
    },
    {
      "type": "Feature",
      "properties": {
        "norad_id": 31760,
        "name": "FENGYUN 1C DEB",
        "group": "fengyun-1c-debris",
        "lat": 54.478395207229426,
        "lon": -87.5738591171276,
        "alt_km": 783.7471107930169,
        "timestamp": "2025-12-07T20:38:14.347535+00:00",
        "meta_object_name": "FENGYUN 1C DEB",
        "meta_object_id": "1999-025CFK",
        "meta_epoch": "2025-12-06T17:11:16.328544",
        "meta_mean_motion": 14.30141393,
        "meta_eccentricity": 0.00526189,
        "meta_inclination": 99.2547,
        "meta_ra_of_asc_node": 78.0076,
        "meta_arg_of_pericenter": 214.5256,
        "meta_mean_anomaly": 145.2503,
        "meta_ephemeris_type": 0,
        "meta_classification_type": "U",
        "meta_norad_cat_id": 31760,
        "meta_element_set_no": 999,
        "meta_rev_at_epoch": 96046,
        "meta_bstar": 0.0014272056,
        "meta_mean_motion_dot": 3.7e-05,
        "meta_mean_motion_ddot": 0,
        "tle_line1": "1 31760U 99025CFK 25340.71616121  .00003700  00000+0  14272-2 0  9998",
        "tle_line2": "2 31760  99.2547  78.0076 0052618 214.5256 145.2503 14.30141393960464"
      },
      "geometry": {
        "type": "Point",
        "coordinates": [
          -87.5738591171276,
          54.478395207229426
        ]
      }
    }
  ]
}